CCSDS_OMM_VERS = 2.0
CREATION_DATE  = 
ORIGINATOR     = 

OBJECT_NAME    = STARLINK-35623
OBJECT_ID      = 2025-237AA
CENTER_NAME    = EARTH
REF_FRAME      = TEME
TIME_SYSTEM    = UTC
MEAN_ELEMENT_THEORY = SGP/SGP4

EPOCH          = 2025-11-12T06:00:02.999808
MEAN_MOTION    = 15.52971876
ECCENTRICITY   = .00011628
INCLINATION    = 53.1589
RA_OF_ASC_NODE = 231.4577
ARG_OF_PERICENTER = 100.7052
MEAN_ANOMALY   = 150.8488

EPHEMERIS_TYPE = 0
CLASSIFICATION_TYPE = U
NORAD_CAT_ID   = 66138
ELEMENT_SET_NO = 999
REV_AT_EPOCH   = 457
BSTAR          = -.35686298E-1
MEAN_MOTION_DOT = -.2020495E-1
MEAN_MOTION_DDOT = 0

CCSDS_OMM_VERS = 2.0
CREATION_DATE  = 
ORIGINATOR     = 

OBJECT_NAME    = STARLINK-35549
OBJECT_ID      = 2025-237AB
CENTER_NAME    = EARTH
REF_FRAME      = TEME
TIME_SYSTEM    = UTC
MEAN_ELEMENT_THEORY = SGP/SGP4

EPOCH          = 2025-11-12T06:00:02.999808
MEAN_MOTION    = 15.52964699
ECCENTRICITY   = .00011335
INCLINATION    = 53.1588
RA_OF_ASC_NODE = 231.4490
ARG_OF_PERICENTER = 107.7389
MEAN_ANOMALY   = 147.6490

EPHEMERIS_TYPE = 0
CLASSIFICATION_TYPE = U
NORAD_CAT_ID   = 66139
ELEMENT_SET_NO = 999
REV_AT_EPOCH   = 457
BSTAR          = -.35445302E-1
MEAN_MOTION_DOT = -.2007806E-1
MEAN_MOTION_DDOT = 0

CCSDS_OMM_VERS = 2.0
CREATION_DATE  = 
ORIGINATOR     = 

OBJECT_NAME    = STARLINK-35625
OBJECT_ID      = 2025-237AC
CENTER_NAME    = EARTH
REF_FRAME      = TEME
TIME_SYSTEM    = UTC
MEAN_ELEMENT_THEORY = SGP/SGP4

EPOCH          = 2025-11-12T06:00:02.999808
MEAN_MOTION    = 15.52968549
ECCENTRICITY   = .0001071
INCLINATION    = 53.1590
RA_OF_ASC_NODE = 231.4534
ARG_OF_PERICENTER = 100.7540
MEAN_ANOMALY   = 152.7162

EPHEMERIS_TYPE = 0
CLASSIFICATION_TYPE = U
NORAD_CAT_ID   = 66140
ELEMENT_SET_NO = 999
REV_AT_EPOCH   = 457
BSTAR          = -.35547002E-1
MEAN_MOTION_DOT = -.2013173E-1
MEAN_MOTION_DDOT = 0

CCSDS_OMM_VERS = 2.0
CREATION_DATE  = 
ORIGINATOR     = 

OBJECT_NAME    = STARLINK-35603
OBJECT_ID      = 2025-237AD
CENTER_NAME    = EARTH
REF_FRAME      = TEME
TIME_SYSTEM    = UTC
MEAN_ELEMENT_THEORY = SGP/SGP4

EPOCH          = 2025-11-12T06:00:02.999808
MEAN_MOTION    = 15.52969757
ECCENTRICITY   = .00011032
INCLINATION    = 53.1588
RA_OF_ASC_NODE = 231.4452
ARG_OF_PERICENTER = 112.0838
MEAN_ANOMALY   = 145.2212

EPHEMERIS_TYPE = 0
CLASSIFICATION_TYPE = U
NORAD_CAT_ID   = 66141
ELEMENT_SET_NO = 999
REV_AT_EPOCH   = 457
BSTAR          = -.35654628E-1
MEAN_MOTION_DOT = -.2018718E-1
MEAN_MOTION_DDOT = 0

CCSDS_OMM_VERS = 2.0
CREATION_DATE  = 
ORIGINATOR     = 

OBJECT_NAME    = TJS-20
OBJECT_ID      = 2025-238A
CENTER_NAME    = EARTH
REF_FRAME      = TEME
TIME_SYSTEM    = UTC
MEAN_ELEMENT_THEORY = SGP/SGP4

EPOCH          = 2025-11-12T01:08:51.749088
MEAN_MOTION    = 1.00272755
ECCENTRICITY   = .00014804
INCLINATION    = 5.9564
RA_OF_ASC_NODE = 300.4612
ARG_OF_PERICENTER = 119.1597
MEAN_ANOMALY   = 71.5054

EPHEMERIS_TYPE = 0
CLASSIFICATION_TYPE = U
NORAD_CAT_ID   = 66142
ELEMENT_SET_NO = 999
REV_AT_EPOCH   = 15
BSTAR          = 0
MEAN_MOTION_DOT = .11E-6
MEAN_MOTION_DDOT = 0

CCSDS_OMM_VERS = 2.0
CREATION_DATE  = 
ORIGINATOR     = 

OBJECT_NAME    = CZ-5 R/B
OBJECT_ID      = 2025-238B
CENTER_NAME    = EARTH
REF_FRAME      = TEME
TIME_SYSTEM    = UTC
MEAN_ELEMENT_THEORY = SGP/SGP4

EPOCH          = 2025-11-11T00:42:12.586176
MEAN_MOTION    = 1.93849350
ECCENTRICITY   = .75925964
INCLINATION    = 16.3235
RA_OF_ASC_NODE = 267.2224
ARG_OF_PERICENTER = 175.5664
MEAN_ANOMALY   = 201.0784

EPHEMERIS_TYPE = 0
CLASSIFICATION_TYPE = U
NORAD_CAT_ID   = 66143
ELEMENT_SET_NO = 999
REV_AT_EPOCH   = 37
BSTAR          = .16676871E-2
MEAN_MOTION_DOT = .53354E-3
MEAN_MOTION_DDOT = -.308958E-6

CCSDS_OMM_VERS = 2.0
CREATION_DATE  = 
ORIGINATOR     = 

OBJECT_NAME    = SPAINSAT NG II
OBJECT_ID      = 2025-239A
CENTER_NAME    = EARTH
REF_FRAME      = TEME
TIME_SYSTEM    = UTC
MEAN_ELEMENT_THEORY = SGP/SGP4

EPOCH          = 2025-11-07T13:30:54.406944
MEAN_MOTION    = 1.10251161
ECCENTRICITY   = .80801894
INCLINATION    = 23.0112
RA_OF_ASC_NODE = 244.8198
ARG_OF_PERICENTER = 181.7023
MEAN_ANOMALY   = 170.8897

EPHEMERIS_TYPE = 0
CLASSIFICATION_TYPE = U
NORAD_CAT_ID   = 66144
ELEMENT_SET_NO = 999
REV_AT_EPOCH   = 18
BSTAR          = 0
MEAN_MOTION_DOT = -.289E-5
MEAN_MOTION_DDOT = 0

CCSDS_OMM_VERS = 2.0
CREATION_DATE  = 
ORIGINATOR     = 

OBJECT_NAME    = STARLINK-35318
OBJECT_ID      = 2025-240A
CENTER_NAME    = EARTH
REF_FRAME      = TEME
TIME_SYSTEM    = UTC
MEAN_ELEMENT_THEORY = SGP/SGP4

EPOCH          = 2025-11-12T06:00:02.999808
MEAN_MOTION    = 15.55172983
ECCENTRICITY   = .00010916
INCLINATION    = 53.1594
RA_OF_ASC_NODE = 250.6601
ARG_OF_PERICENTER = 79.0259
MEAN_ANOMALY   = 322.4898

EPHEMERIS_TYPE = 0
CLASSIFICATION_TYPE = U
NORAD_CAT_ID   = 66146
ELEMENT_SET_NO = 999
REV_AT_EPOCH   = 405
BSTAR          = -.32798346E-1
MEAN_MOTION_DOT = -.2014419E-1
MEAN_MOTION_DDOT = 0

CCSDS_OMM_VERS = 2.0
CREATION_DATE  = 
ORIGINATOR     = 

OBJECT_NAME    = STARLINK-33948
OBJECT_ID      = 2025-240B
CENTER_NAME    = EARTH
REF_FRAME      = TEME
TIME_SYSTEM    = UTC
MEAN_ELEMENT_THEORY = SGP/SGP4

EPOCH          = 2025-11-12T06:00:02.999808
MEAN_MOTION    = 15.55178805
ECCENTRICITY   = .00010078
INCLINATION    = 53.1595
RA_OF_ASC_NODE = 250.6560
ARG_OF_PERICENTER = 78.9743
MEAN_ANOMALY   = 324.4653

EPHEMERIS_TYPE = 0
CLASSIFICATION_TYPE = U
NORAD_CAT_ID   = 66147
ELEMENT_SET_NO = 999
REV_AT_EPOCH   = 405
BSTAR          = -.33121496E-1
MEAN_MOTION_DOT = -.2032498E-1
MEAN_MOTION_DDOT = 0

CCSDS_OMM_VERS = 2.0
CREATION_DATE  = 
ORIGINATOR     = 

OBJECT_NAME    = STARLINK-35081
OBJECT_ID      = 2025-240C
CENTER_NAME    = EARTH
REF_FRAME      = TEME
TIME_SYSTEM    = UTC
MEAN_ELEMENT_THEORY = SGP/SGP4

EPOCH          = 2025-11-12T06:00:02.999808
MEAN_MOTION    = 15.55168495
ECCENTRICITY   = .00009182
INCLINATION    = 53.1597
RA_OF_ASC_NODE = 250.6522
ARG_OF_PERICENTER = 89.8398
MEAN_ANOMALY   = 315.5120

EPHEMERIS_TYPE = 0
CLASSIFICATION_TYPE = U
NORAD_CAT_ID   = 66148
ELEMENT_SET_NO = 999
REV_AT_EPOCH   = 400
BSTAR          = -.32671656E-1
MEAN_MOTION_DOT = -.2007054E-1
MEAN_MOTION_DDOT = 0

CCSDS_OMM_VERS = 2.0
CREATION_DATE  = 
ORIGINATOR     = 

OBJECT_NAME    = STARLINK-35601
OBJECT_ID      = 2025-240D
CENTER_NAME    = EARTH
REF_FRAME      = TEME
TIME_SYSTEM    = UTC
MEAN_ELEMENT_THEORY = SGP/SGP4

EPOCH          = 2025-11-12T06:00:02.999808
MEAN_MOTION    = 15.55149781
ECCENTRICITY   = .00009495
INCLINATION    = 53.1595
RA_OF_ASC_NODE = 250.6478
ARG_OF_PERICENTER = 90.4828
MEAN_ANOMALY   = 316.8006

EPHEMERIS_TYPE = 0
CLASSIFICATION_TYPE = U
NORAD_CAT_ID   = 66149
ELEMENT_SET_NO = 999
REV_AT_EPOCH   = 400
BSTAR          = -.32354468E-1
MEAN_MOTION_DOT = -.1988376E-1
MEAN_MOTION_DDOT = 0

CCSDS_OMM_VERS = 2.0
CREATION_DATE  = 
ORIGINATOR     = 

OBJECT_NAME    = STARLINK-35605
OBJECT_ID      = 2025-240E
CENTER_NAME    = EARTH
REF_FRAME      = TEME
TIME_SYSTEM    = UTC
MEAN_ELEMENT_THEORY = SGP/SGP4

EPOCH          = 2025-11-12T06:00:02.999808
MEAN_MOTION    = 15.55173821
ECCENTRICITY   = .00011506
INCLINATION    = 53.1597
RA_OF_ASC_NODE = 250.6443
ARG_OF_PERICENTER = 77.3345
MEAN_ANOMALY   = 331.8502

EPHEMERIS_TYPE = 0
CLASSIFICATION_TYPE = U
NORAD_CAT_ID   = 66150
ELEMENT_SET_NO = 999
REV_AT_EPOCH   = 400
BSTAR          = -.32847117E-1
MEAN_MOTION_DOT = -.2017189E-1
MEAN_MOTION_DDOT = 0

