STARLINK-35623          
1 66138U 25237AA  25316.25003472 -.02020495  00000+0 -35686-1 0  9995
2 66138  53.1589 231.4577 0001162 100.7052 150.8488 15.52971876  4572
STARLINK-35549          
1 66139U 25237AB  25316.25003472 -.02007806  00000+0 -35445-1 0  9990
2 66139  53.1588 231.4490 0001133 107.7389 147.6490 15.52964699  4576
STARLINK-35625          
1 66140U 25237AC  25316.25003472 -.02013173  00000+0 -35547-1 0  9999
2 66140  53.1590 231.4534 0001071 100.7540 152.7162 15.52968549  4574
STARLINK-35603          
1 66141U 25237AD  25316.25003472 -.02018718  00000+0 -35655-1 0  9990
2 66141  53.1588 231.4452 0001103 112.0838 145.2212 15.52969757  4578
TJS-20                  
1 66142U 25238A   25316.04782117  .00000011  00000+0  00000+0 0  9996
2 66142   5.9564 300.4612 0001480 119.1597  71.5054  1.00272755   159
CZ-5 R/B                
1 66143U 25238B   25315.02931234  .00053354 -30896-6  16677-2 0  9992
2 66143  16.3235 267.2224 7592596 175.5664 201.0784  1.93849350   378
SPAINSAT NG II          
1 66144U 25239A   25311.56312971 -.00000289  00000+0  00000+0 0  9996
2 66144  23.0112 244.8198 8080189 181.7023 170.8897  1.10251161   181
STARLINK-35318          
1 66146U 25240A   25316.25003472 -.02014419  00000+0 -32798-1 0  9998
2 66146  53.1594 250.6601 0001091  79.0259 322.4898 15.55172983  4056
STARLINK-33948          
1 66147U 25240B   25316.25003472 -.02032498  00000+0 -33121-1 0  9997
2 66147  53.1595 250.6560 0001007  78.9743 324.4653 15.55178805  4055
STARLINK-35081          
1 66148U 25240C   25316.25003472 -.02007054  00000+0 -32672-1 0  9998
2 66148  53.1597 250.6522 0000918  89.8398 315.5120 15.55168495  4002
STARLINK-35601          
1 66149U 25240D   25316.25003472 -.01988376  00000+0 -32354-1 0  9990
2 66149  53.1595 250.6478 0000949  90.4828 316.8006 15.55149781  4005
STARLINK-35605          
1 66150U 25240E   25316.25003472 -.02017189  00000+0 -32847-1 0  9995
2 66150  53.1597 250.6443 0001150  77.3345 331.8502 15.55173821  4004
